sat12672
1 12672U 81053AC  20046.65807339  .00000181  00000-0  15513-3 0  9996
2 12672  82.9425 105.7880 0025030 311.2399 207.4700 13.81577857938739
